[{"OBJECT_NAME":"SL-8 R/B","OBJECT_ID":"1990-078B","EPOCH":"2026-03-03T23:57:01.999584","MEAN_MOTION":14.88836115,"ECCENTRICITY":0.0363616,"INCLINATION":82.8989,"RA_OF_ASC_NODE":256.4302,"ARG_OF_PERICENTER":33.1204,"MEAN_ANOMALY":329.2215,"EPHEMERIS_TYPE":0,"CLASSIFICATION_TYPE":"U","NORAD_CAT_ID":20775,"ELEMENT_SET_NO":999,"REV_AT_EPOCH":80845,"BSTAR":0.00061063,"MEAN_MOTION_DOT":0.00020766,"MEAN_MOTION_DDOT":0},{"OBJECT_NAME":"SL-8 R/B","OBJECT_ID":"1991-006B","EPOCH":"2026-03-03T19:48:04.313952","MEAN_MOTION":13.77493424,"ECCENTRICITY":0.0023378,"INCLINATION":82.9464,"RA_OF_ASC_NODE":174.4054,"ARG_OF_PERICENTER":54.1372,"MEAN_ANOMALY":64.714,"EPHEMERIS_TYPE":0,"CLASSIFICATION_TYPE":"U","NORAD_CAT_ID":21088,"ELEMENT_SET_NO":999,"REV_AT_EPOCH":76326,"BSTAR":4.9724e-5,"MEAN_MOTION_DOT":6.5e-7,"MEAN_MOTION_DDOT":0},{"OBJECT_NAME":"OKEAN-3","OBJECT_ID":"1991-039A","EPOCH":"2026-03-04T03:50:06.457344","MEAN_MOTION":15.04757132,"ECCENTRICITY":0.0014281,"INCLINATION":82.5199,"RA_OF_ASC_NODE":342.1995,"ARG_OF_PERICENTER":358.4141,"MEAN_ANOMALY":1.7037,"EPHEMERIS_TYPE":0,"CLASSIFICATION_TYPE":"U","NORAD_CAT_ID":21397,"ELEMENT_SET_NO":999,"REV_AT_EPOCH":86420,"BSTAR":0.00032427,"MEAN_MOTION_DOT":4.607e-5,"MEAN_MOTION_DDOT":0},{"OBJECT_NAME":"COSMOS 2151","OBJECT_ID":"1991-042A","EPOCH":"2026-03-04T03:31:31.392768","MEAN_MOTION":15.00079549,"ECCENTRICITY":0.0014118,"INCLINATION":82.4928,"RA_OF_ASC_NODE":89.0243,"ARG_OF_PERICENTER":80.0933,"MEAN_ANOMALY":280.1884,"EPHEMERIS_TYPE":0,"CLASSIFICATION_TYPE":"U","NORAD_CAT_ID":21422,"ELEMENT_SET_NO":999,"REV_AT_EPOCH":86236,"BSTAR":0.00023676,"MEAN_MOTION_DOT":2.981e-5,"MEAN_MOTION_DDOT":0},{"OBJECT_NAME":"SL-14 R/B","OBJECT_ID":"1991-042B","EPOCH":"2026-03-03T19:34:15.525408","MEAN_MOTION":14.81822532,"ECCENTRICITY":0.0015611,"INCLINATION":82.4912,"RA_OF_ASC_NODE":225.691,"ARG_OF_PERICENTER":259.6022,"MEAN_ANOMALY":100.3432,"EPHEMERIS_TYPE":0,"CLASSIFICATION_TYPE":"U","NORAD_CAT_ID":21423,"ELEMENT_SET_NO":999,"REV_AT_EPOCH":85220,"BSTAR":8.2679e-5,"MEAN_MOTION_DOT":6.77e-6,"MEAN_MOTION_DDOT":0},{"OBJECT_NAME":"ERS-1","OBJECT_ID":"1991-050A","EPOCH":"2026-03-04T01:36:22.738176","MEAN_MOTION":14.39444371,"ECCENTRICITY":0.0031323,"INCLINATION":98.7885,"RA_OF_ASC_NODE":81.1601,"ARG_OF_PERICENTER":217.3678,"MEAN_ANOMALY":142.533,"EPHEMERIS_TYPE":0,"CLASSIFICATION_TYPE":"U","NORAD_CAT_ID":21574,"ELEMENT_SET_NO":999,"REV_AT_EPOCH":81492,"BSTAR":0.00015629,"MEAN_MOTION_DOT":4.43e-6,"MEAN_MOTION_DDOT":0},{"OBJECT_NAME":"ARIANE 40 R/B","OBJECT_ID":"1991-050F","EPOCH":"2026-03-04T03:09:00.702432","MEAN_MOTION":14.4288901,"ECCENTRICITY":0.0004363,"INCLINATION":98.2024,"RA_OF_ASC_NODE":115.5761,"ARG_OF_PERICENTER":93.2924,"MEAN_ANOMALY":266.8765,"EPHEMERIS_TYPE":0,"CLASSIFICATION_TYPE":"U","NORAD_CAT_ID":21610,"ELEMENT_SET_NO":999,"REV_AT_EPOCH":81819,"BSTAR":0.00013953,"MEAN_MOTION_DOT":4.24e-6,"MEAN_MOTION_DDOT":0},{"OBJECT_NAME":"INTERCOSMOS 25","OBJECT_ID":"1991-086A","EPOCH":"2026-03-04T03:02:10.927968","MEAN_MOTION":12.11982538,"ECCENTRICITY":0.1487059,"INCLINATION":82.6063,"RA_OF_ASC_NODE":313.3703,"ARG_OF_PERICENTER":128.9167,"MEAN_ANOMALY":245.4246,"EPHEMERIS_TYPE":0,"CLASSIFICATION_TYPE":"U","NORAD_CAT_ID":21819,"ELEMENT_SET_NO":999,"REV_AT_EPOCH":49601,"BSTAR":0.00033299,"MEAN_MOTION_DOT":1.733e-5,"MEAN_MOTION_DDOT":0},{"OBJECT_NAME":"SL-8 R/B","OBJECT_ID":"1992-008B","EPOCH":"2026-03-04T03:13:31.409184","MEAN_MOTION":13.75969799,"ECCENTRICITY":0.003527,"INCLINATION":82.9227,"RA_OF_ASC_NODE":271.9119,"ARG_OF_PERICENTER":148.4698,"MEAN_ANOMALY":331.0453,"EPHEMERIS_TYPE":0,"CLASSIFICATION_TYPE":"U","NORAD_CAT_ID":21876,"ELEMENT_SET_NO":999,"REV_AT_EPOCH":70865,"BSTAR":-1.0063e-5,"MEAN_MOTION_DOT":6.0e-8,"MEAN_MOTION_DDOT":0},{"OBJECT_NAME":"SL-8 R/B","OBJECT_ID":"1992-020B","EPOCH":"2026-03-03T19:28:47.676288","MEAN_MOTION":13.75548716,"ECCENTRICITY":0.0027895,"INCLINATION":82.934,"RA_OF_ASC_NODE":158.1246,"ARG_OF_PERICENTER":315.8977,"MEAN_ANOMALY":161.2475,"EPHEMERIS_TYPE":0,"CLASSIFICATION_TYPE":"U","NORAD_CAT_ID":21938,"ELEMENT_SET_NO":999,"REV_AT_EPOCH":70032,"BSTAR":8.6285e-5,"MEAN_MOTION_DOT":9.8e-7,"MEAN_MOTION_DDOT":0},{"OBJECT_NAME":"USA 81","OBJECT_ID":"1992-023A","EPOCH":"2026-03-04T03:21:39.620160","MEAN_MOTION":14.32365935,"ECCENTRICITY":0.0002603,"INCLINATION":85.0095,"RA_OF_ASC_NODE":134.6425,"ARG_OF_PERICENTER":81.9295,"MEAN_ANOMALY":278.2193,"EPHEMERIS_TYPE":0,"CLASSIFICATION_TYPE":"U","NORAD_CAT_ID":21949,"ELEMENT_SET_NO":999,"REV_AT_EPOCH":9399,"BSTAR":8.6106e-5,"MEAN_MOTION_DOT":2.52e-6,"MEAN_MOTION_DDOT":0},{"OBJECT_NAME":"COSMOS 2219","OBJECT_ID":"1992-076A","EPOCH":"2026-03-04T03:28:39.935424","MEAN_MOTION":14.14089647,"ECCENTRICITY":0.0019304,"INCLINATION":71.062,"RA_OF_ASC_NODE":29.6579,"ARG_OF_PERICENTER":214.4562,"MEAN_ANOMALY":145.531,"EPHEMERIS_TYPE":0,"CLASSIFICATION_TYPE":"U","NORAD_CAT_ID":22219,"ELEMENT_SET_NO":999,"REV_AT_EPOCH":71759,"BSTAR":0.00018063,"MEAN_MOTION_DOT":2.97e-6,"MEAN_MOTION_DDOT":0},{"OBJECT_NAME":"SL-16 R/B","OBJECT_ID":"1992-076B","EPOCH":"2026-03-03T20:19:08.336928","MEAN_MOTION":14.16860043,"ECCENTRICITY":0.0010605,"INCLINATION":70.9999,"RA_OF_ASC_NODE":200.6805,"ARG_OF_PERICENTER":107.2129,"MEAN_ANOMALY":4.0235,"EPHEMERIS_TYPE":0,"CLASSIFICATION_TYPE":"U","NORAD_CAT_ID":22220,"ELEMENT_SET_NO":999,"REV_AT_EPOCH":72100,"BSTAR":4.797e-5,"MEAN_MOTION_DOT":4.8e-7,"MEAN_MOTION_DDOT":0},{"OBJECT_NAME":"COSMOS 2221","OBJECT_ID":"1992-080A","EPOCH":"2026-03-04T02:04:30.372096","MEAN_MOTION":14.96175748,"ECCENTRICITY":0.0013542,"INCLINATION":82.5016,"RA_OF_ASC_NODE":284.4495,"ARG_OF_PERICENTER":206.5778,"MEAN_ANOMALY":153.4751,"EPHEMERIS_TYPE":0,"CLASSIFICATION_TYPE":"U","NORAD_CAT_ID":22236,"ELEMENT_SET_NO":999,"REV_AT_EPOCH":77995,"BSTAR":0.00024463,"MEAN_MOTION_DOT":2.785e-5,"MEAN_MOTION_DDOT":0},{"OBJECT_NAME":"SL-16 R/B","OBJECT_ID":"1992-093B","EPOCH":"2026-03-04T03:45:26.784000","MEAN_MOTION":14.15449471,"ECCENTRICITY":0.0006315,"INCLINATION":71.0239,"RA_OF_ASC_NODE":15.8802,"ARG_OF_PERICENTER":299.5558,"MEAN_ANOMALY":60.4935,"EPHEMERIS_TYPE":0,"CLASSIFICATION_TYPE":"U","NORAD_CAT_ID":22285,"ELEMENT_SET_NO":999,"REV_AT_EPOCH":71237,"BSTAR":-5.022e-5,"MEAN_MOTION_DOT":-1.46e-6,"MEAN_MOTION_DDOT":0},{"OBJECT_NAME":"COSMOS 2228","OBJECT_ID":"1992-094A","EPOCH":"2026-03-04T02:33:24.045120","MEAN_MOTION":14.97157662,"ECCENTRICITY":0.001716,"INCLINATION":82.5145,"RA_OF_ASC_NODE":242.6573,"ARG_OF_PERICENTER":324.5861,"MEAN_ANOMALY":35.4221,"EPHEMERIS_TYPE":0,"CLASSIFICATION_TYPE":"U","NORAD_CAT_ID":22286,"ELEMENT_SET_NO":999,"REV_AT_EPOCH":77522,"BSTAR":0.00031769,"MEAN_MOTION_DOT":3.705e-5,"MEAN_MOTION_DDOT":0},{"OBJECT_NAME":"SL-16 R/B","OBJECT_ID":"1993-016B","EPOCH":"2026-03-03T21:55:46.468128","MEAN_MOTION":14.15305477,"ECCENTRICITY":0.0011387,"INCLINATION":71.0059,"RA_OF_ASC_NODE":227.3123,"ARG_OF_PERICENTER":322.1919,"MEAN_ANOMALY":37.8403,"EPHEMERIS_TYPE":0,"CLASSIFICATION_TYPE":"U","NORAD_CAT_ID":22566,"ELEMENT_SET_NO":999,"REV_AT_EPOCH":70135,"BSTAR":0.00019177,"MEAN_MOTION_DOT":3.26e-6,"MEAN_MOTION_DDOT":0}]
